NORAD_CAT_ID,OBJECT_NAME,OBJECT_TYPE,EPOCH,MEAN_MOTION,ECCENTRICITY,INCLINATION,RA_OF_ASC_NODE,ARG_OF_PERICENTER,MEAN_ANOMALY,BSTAR,MEAN_MOTION_DOT,MEAN_MOTION_DDOT,TLE_LINE0,TLE_LINE1,TLE_LINE2,SEMIMAJOR_AXIS,PERIOD,APOGEE,PERIGEE,DECAYED
53746.0,STARLINK-4589,PAYLOAD,2023-07-05 03:09:00,15.08841998,0.0001017,53.2185,337.0879,89.7675,270.3433,2.4107e-05,9.6e-07,0.0,0 STARLINK-4589,1 53746U 22107AY  23186.13125439  .00000096  00000-0  24107-4 0  9998,2 53746  53.2185 337.0879 0001017  89.7675 270.3433 15.08841998 46082,6917.874,95.437,540.443,539.036,0.0
53746.0,STARLINK-4589,PAYLOAD,2023-07-05 14:16:42,15.08836361,0.0001233,53.2181,335.0078,97.8835,262.2297,5.5191e-05,5.91e-06,0.0,0 STARLINK-4589,1 53746U 22107AY  23186.59493935  .00000591  00000-0  55191-4 0  9994,2 53746  53.2181 335.0078 0001233  97.8835 262.2297 15.08836361 46159,6917.892,95.438,540.609,538.904,0.0
53746.0,STARLINK-4589,PAYLOAD,2023-07-06 15:42:52,15.08843964,8.05e-05,53.2169,330.25,102.5528,257.5555,7.7983e-05,9.54e-06,0.0,0 STARLINK-4589,1 53746U 22107AY  23187.65477513  .00000954  00000-0  77983-4 0  9992,2 53746  53.2169 330.2500 0000805 102.5528 257.5555 15.08843964 46318,6917.868,95.437,540.29,539.176,0.0
53746.0,STARLINK-4589,PAYLOAD,2023-07-07 20:19:48,15.08853939,8.76e-05,53.2179,324.897,85.4028,274.7064,0.00018157,2.604e-05,0.0,0 STARLINK-4589,1 53746U 22107AY  23188.84708640  .00002604  00000-0  18157-3 0  9993,2 53746  53.2179 324.8970 0000876  85.4028 274.7064 15.08853939 46499,6917.838,95.437,540.309,539.097,0.0
53746.0,STARLINK-4589,PAYLOAD,2023-07-08 09:02:54,15.08840707,9.95e-05,53.2166,322.5177,86.9838,273.1268,9.4914e-05,1.223e-05,0.0,0 STARLINK-4589,1 53746U 22107AY  23189.37701626  .00001223  00000-0  94914-4 0  9991,2 53746  53.2166 322.5177 0000995  86.9838 273.1268 15.08840707 46573,6917.878,95.438,540.432,539.055,0.0
53746.0,STARLINK-4589,PAYLOAD,2023-07-08 20:10:35,15.08849969,9.57e-05,53.2166,320.4365,93.1033,267.0068,0.00015243,2.14e-05,0.0,0 STARLINK-4589,1 53746U 22107AY  23189.84069046  .00002140  00000-0  15243-3 0  9992,2 53746  53.2166 320.4365 0000957  93.1033 267.0068 15.08849969 46641,6917.85,95.437,540.377,539.053,0.0
53746.0,STARLINK-4589,PAYLOAD,2023-07-09 12:04:27,15.08834831,9.7e-05,53.2173,317.4616,93.346,266.7643,-6.7438e-05,-1.361e-05,0.0,0 STARLINK-4589,1 53746U 22107AY  23190.50309959 -.00001361  00000-0 -67438-4 0  9997,2 53746  53.2173 317.4616 0000970  93.3460 266.7643 15.08834831 46743,6917.896,95.438,540.432,539.09,0.0
53746.0,STARLINK-4589,PAYLOAD,2023-07-10 15:06:00,15.08846332,9.71e-05,53.2174,312.4076,91.1832,268.9271,0.00020379,2.958e-05,0.0,0 STARLINK-4589,1 53746U 22107AY  23191.62917714  .00002958  00000-0  20379-3 0  9998,2 53746  53.2174 312.4076 0000971  91.1832 268.9271 15.08846332 46918,6917.861,95.437,540.398,539.054,0.0
53746.0,STARLINK-4589,PAYLOAD,2023-07-11 00:38:20,15.08831683,0.0001172,53.2169,310.6222,91.2861,268.8265,-3.628e-05,-8.65e-06,0.0,0 STARLINK-4589,1 53746U 22107AY  23192.02662298 -.00000865  00000-0 -36280-4 0  9993,2 53746  53.2169 310.6222 0001172  91.2861 268.8265 15.08831683 46973,6917.906,95.438,540.582,538.96,0.0
53746.0,STARLINK-4589,PAYLOAD,2023-07-12 00:29:06,15.08851536,8.84e-05,53.2167,306.1629,95.6366,264.4727,0.00043905,6.709e-05,0.0,0 STARLINK-4589,1 53746U 22107AY  23193.02021735  .00006709  00000-0  43905-3 0  9991,2 53746  53.2167 306.1629 0000884  95.6366 264.4727 15.08851536 47121,6917.845,95.437,540.322,539.099,0.0
53746.0,STARLINK-4589,PAYLOAD,2023-07-12 17:58:21,15.0884345,0.0001163,53.2174,302.8921,99.4737,260.6386,0.000232,3.407e-05,0.0,0 STARLINK-4589,1 53746U 22107AY  23193.74885903  .00003407  00000-0  23200-3 0  9993,2 53746  53.2174 302.8921 0001163  99.4737 260.6386 15.08843450 47239,6917.87,95.437,540.539,538.93,0.0
53746.0,STARLINK-4589,PAYLOAD,2023-07-13 14:38:22,15.08833776,0.0001031,53.217,299.027,84.1522,275.9588,2.6333e-05,1.31e-06,0.0,0 STARLINK-4589,1 53746U 22107AY  23194.60998688  .00000131  00000-0  26333-4 0  9996,2 53746  53.2170 299.0270 0001031  84.1522 275.9588 15.08833776 47363,6917.899,95.438,540.478,539.051,0.0
53746.0,STARLINK-4589,PAYLOAD,2023-07-14 16:04:32,15.08859609,0.0001112,53.2163,294.2689,71.7234,288.3879,0.00066996,0.00010396,0.0,0 STARLINK-4589,1 53746U 22107AY  23195.66982217  .00010396  00000-0  66996-3 0  9996,2 53746  53.2163 294.2689 0001112  71.7234 288.3879 15.08859609 47520,6917.82,95.436,540.455,538.916,0.0
53746.0,STARLINK-4589,PAYLOAD,2023-07-15 06:23:00,15.08850432,0.0001618,53.2167,291.5907,115.5451,244.5708,0.00033459,5.042e-05,0.0,0 STARLINK-4589,1 53746U 22107AY  23196.26598189  .00005042  00000-0  33459-3 0  9994,2 53746  53.2167 291.5907 0001618 115.5451 244.5708 15.08850432 47616,6917.849,95.437,540.833,538.594,0.0
53746.0,STARLINK-4589,PAYLOAD,2023-07-15 23:52:15,15.08848583,0.0001367,53.2166,288.3244,51.5489,308.5625,0.00022497,3.295e-05,0.0,0 STARLINK-4589,1 53746U 22107AY  23196.99462355  .00003295  00000-0  22497-3 0  9997,2 53746  53.2166 288.3244 0001367  51.5489 308.5625 15.08848583 47729,6917.854,95.437,540.665,538.773,0.0
53746.0,STARLINK-4589,PAYLOAD,2023-07-16 06:13:48,15.08840003,0.0001397,53.2171,287.1296,103.4088,256.706,1.7618e-05,-8e-08,0.0,0 STARLINK-4589,1 53746U 22107AY  23197.25958489 -.00000008  00000-0  17618-4 0  9995,2 53746  53.2171 287.1296 0001397 103.4088 256.7060 15.08840003 47764,6917.88,95.438,540.712,538.779,0.0
53746.0,STARLINK-4589,PAYLOAD,2023-07-17 07:39:58,15.08845476,0.0001251,53.2177,282.3753,91.7988,268.3148,0.00024502,3.614e-05,0.0,0 STARLINK-4589,1 53746U 22107AY  23198.31942749  .00003614  00000-0  24502-3 0  9999,2 53746  53.2177 282.3753 0001251  91.7988 268.3148 15.08845476 47925,6917.864,95.437,540.594,538.863,0.0
53746.0,STARLINK-4589,PAYLOAD,2023-07-18 10:41:31,15.08848519,0.0001133,53.2168,277.3202,95.6054,264.5067,0.00029781,4.456e-05,0.0,0 STARLINK-4589,1 53746U 22107AY  23199.44550681  .00004456  00000-0  29781-3 0  9993,2 53746  53.2168 277.3202 0001133  95.6054 264.5067 15.08848519 48092,6917.854,95.437,540.503,538.936,0.0
53746.0,STARLINK-4589,PAYLOAD,2023-07-19 08:56:55,15.08838589,0.0001801,53.216,273.1568,133.0837,227.0306,0.00021062,3.065e-05,0.0,0 STARLINK-4589,1 53746U 22107AY  23200.37286933  .00003065  00000-0  21062-3 0  9993,2 53746  53.2160 273.1568 0001801 133.0837 227.0306 15.08838589 48233,6917.885,95.438,540.996,538.504,0.0
53746.0,STARLINK-4589,PAYLOAD,2023-07-19 15:18:28,15.0883551,0.0001067,53.2158,271.9677,102.7018,257.4093,0.00030115,4.508e-05,0.0,0 STARLINK-4589,1 53746U 22107AY  23200.63783396  .00004508  00000-0  30115-3 0  9999,2 53746  53.2158 271.9677 0001067 102.7018 257.4093 15.08835510 48270,6917.894,95.438,540.497,539.021,0.0
53746.0,STARLINK-4589,PAYLOAD,2023-07-21 07:03:07,15.08844898,0.000104,53.2153,264.5326,99.416,260.6949,0.00024173,3.562e-05,0.0,0 STARLINK-4589,1 53746U 22107AY  23202.29383364  .00003562  00000-0  24173-3 0  9990,2 53746  53.2153 264.5326 0001040  99.4160 260.6949 15.08844898 48528,6917.865,95.437,540.45,539.011,0.0
53746.0,STARLINK-4589,PAYLOAD,2023-07-24 03:24:42,15.08841929,0.0001491,53.2128,251.7434,96.9026,263.2136,0.00014962,2.094e-05,0.0,0 STARLINK-4589,1 53746U 22107AY  23205.14215436  .00002094  00000-0  14962-3 0  9995,2 53746  53.2128 251.7434 0001491  96.9026 263.2136 15.08841929 49734,6917.874,95.437,540.771,538.708,0.0
53746.0,STARLINK-4589,PAYLOAD,2023-07-25 08:01:38,15.08838653,0.0001242,53.2154,246.3902,96.829,263.2843,-6.3686e-06,-3.89e-06,0.0,0 STARLINK-4589,1 53746U 22107AY  23206.33447591 -.00000389  00000-0 -63686-5 0  9992,2 53746  53.2154 246.3902 0001242  96.8290 263.2843 15.08838653 49914,6917.885,95.438,540.609,538.89,0.0
53746.0,STARLINK-4589,PAYLOAD,2023-07-26 11:03:11,15.08843749,0.0001241,53.2151,241.3365,95.2557,264.8577,0.00012194,1.654e-05,0.0,0 STARLINK-4589,1 53746U 22107AY  23207.46055413  .00001654  00000-0  12194-3 0  9995,2 53746  53.2151 241.3365 0001241  95.2557 264.8577 15.08843749 50080,6917.869,95.437,540.592,538.875,0.0
53746.0,STARLINK-4589,PAYLOAD,2023-07-26 19:00:07,15.0883984,0.0001131,53.2148,239.8502,89.4987,270.6135,0.0001399,1.939e-05,0.0,0 STARLINK-4589,1 53746U 22107AY  23207.79175600  .00001939  00000-0  13990-3 0  9993,2 53746  53.2148 239.8502 0001131  89.4987 270.6135 15.08839840 50139,6917.881,95.438,540.528,538.963,0.0
53746.0,STARLINK-4589,PAYLOAD,2023-07-27 09:18:35,15.08842002,0.0001118,53.2149,237.1736,88.3484,271.7637,0.00010306,1.353e-05,0.0,0 STARLINK-4589,1 53746U 22107AY  23208.38791464  .00001353  00000-0  10306-3 0  9999,2 53746  53.2149 237.1736 0001118  88.3484 271.7637 15.08842002 49440,6917.874,95.437,540.513,538.966,0.0
53746.0,STARLINK-4589,PAYLOAD,2023-07-27 18:50:53,15.08855049,0.0002113,53.2149,235.3896,91.1059,269.0176,0.00023739,3.493e-05,0.0,0 STARLINK-4589,1 53746U 22107AY  23208.78534694  .00003493  00000-0  23739-3 0  9994,2 53746  53.2149 235.3896 0002113  91.1059 269.0176 15.08855049 49503,6917.834,95.437,541.161,538.238,0.0
53746.0,STARLINK-4589,PAYLOAD,2023-07-28 05:58:36,15.08833657,0.0001211,53.2145,233.3077,103.2397,256.873,-0.00015067,-2.685e-05,0.0,0 STARLINK-4589,1 53746U 22107AY  23209.24903355 -.00002685  00000-0 -15067-3 0  9999,2 53746  53.2145 233.3077 0001211 103.2397 256.8730 15.08833657 49574,6917.9,95.438,540.603,538.927,0.0
53746.0,STARLINK-4589,PAYLOAD,2023-07-28 10:44:46,15.08830218,9.95e-05,53.2146,232.4157,109.754,250.3559,-0.00018877,-3.29e-05,0.0,0 STARLINK-4589,1 53746U 22107AY  23209.44775519 -.00003290  00000-0 -18877-3 0  9995,2 53746  53.2146 232.4157 0000995 109.7540 250.3559 15.08830218 50382,6917.91,95.438,540.464,539.087,0.0
53746.0,STARLINK-4589,PAYLOAD,2023-07-29 09:00:10,15.08836467,0.0001262,53.2145,228.2516,106.2489,253.8642,1.1749e-05,-1.01e-06,0.0,0 STARLINK-4589,1 53746U 22107AY  23210.37512225 -.00000101  00000-0  11749-4 0  9991,2 53746  53.2145 228.2516 0001262 106.2489 253.8642 15.08836467 49746,6917.891,95.438,540.629,538.883,0.0
